[{"OBJECT_NAME":"STARLINK-5931","OBJECT_ID":"2023-078U","EPOCH":"2026-03-09T22:24:23.485824","MEAN_MOTION":14.9832927,"ECCENTRICITY":0.00028752,"INCLINATION":70.0004,"RA_OF_ASC_NODE":343.9713,"ARG_OF_PERICENTER":273.751,"MEAN_ANOMALY":86.332,"EPHEMERIS_TYPE":0,"CLASSIFICATION_TYPE":"U","NORAD_CAT_ID":56785,"ELEMENT_SET_NO":999,"REV_AT_EPOCH":15340,"BSTAR":-2.6054243e-5,"MEAN_MOTION_DOT":-4.04e-6,"MEAN_MOTION_DDOT":0},{"OBJECT_NAME":"ICEYE-X40","OBJECT_ID":"2024-149CK","EPOCH":"2026-03-09T18:13:16.348800","MEAN_MOTION":14.97556326,"ECCENTRICITY":0.00059832,"INCLINATION":97.6865,"RA_OF_ASC_NODE":146.8579,"ARG_OF_PERICENTER":65.2061,"MEAN_ANOMALY":294.9783,"EPHEMERIS_TYPE":0,"CLASSIFICATION_TYPE":"U","NORAD_CAT_ID":60549,"ELEMENT_SET_NO":999,"REV_AT_EPOCH":8519,"BSTAR":0.00028351559,"MEAN_MOTION_DOT":3.253e-5,"MEAN_MOTION_DDOT":0}]
